SENTINEL-6              
1 46984U 20086A   24226.38324176 -.00000058  00000+0  13535-4 0  9991
2 46984  66.0408  92.4759 0007773 269.7325  90.2800 12.80930559174273
